{"type":"FeatureCollection","features":[{"type":"Feature","properties":{"comuna":"Angol","provincia":"Malleco"},"geometry":{"type":"Polygon","coordinates":[[[-72.7758,-37.5952],[-72.7662,-37.5956],[-72.7568,-37.6122],[-72.7314,-37.6166],[-72.7276,-37.6258],[-72.7076,-37.6258],[-72.6971,-37.649],[-72.7023,-37.6841],[-72.71,-37.6926],[-72.6937,-37.6965],[-72.6537,-37.7361],[-72.6261,-37.7342],[-72.619,-37.7649],[-72.5965,-37.7897],[-72.5773,-37.7892],[-72.5793,-37.7935],[-72.5621,-37.802],[-72.5639,-37.8072],[-72.5464,-37.7997],[-72.5444,-37.8133],[-72.5285,-37.8366],[-72.513,-37.8248],[-72.5051,-37.8309],[-72.5045,-37.8196],[-72.4864,-37.8289],[-72.4829,-37.8417],[-72.5178,-37.8568],[-72.5075,-37.8703],[-72.5287,-37.8883],[-72.5144,-37.8949],[-72.5273,-37.9174],[-72.5084,-37.9167],[-72.5058,-37.9255],[-72.5148,-37.9347],[-72.5344,-37.9327],[-72.5572,-37.9417],[-72.5508,-37.9479],[-72.5547,-37.9525],[-72.5451,-37.9667],[-72.5413,-37.9901],[-72.5464,-38.0027],[-72.5655,-38.0],[-72.5624,-38.0133],[-72.5707,-38.0234],[-72.6032,-38.0211],[-72.6037,-37.9962],[-72.6199,-37.9858],[-72.6192,-37.971],[-72.6273,-37.9714],[-72.6204,-37.945],[-72.6364,-37.9343],[-72.632,-37.9226],[-72.642,-37.921],[-72.6403,-37.9092],[-72.6588,-37.8914],[-72.6901,-37.9071],[-72.692,-37.9167],[-72.711,-37.9036],[-72.7267,-37.9057],[-72.7774,-37.8936],[-72.7842,-37.8714],[-72.7717,-37.8664],[-72.7818,-37.8628],[-72.803,-37.8376],[-72.9362,-37.8397],[-72.9633,-37.8539],[-72.9629,-37.847],[-73.0091,-37.8593],[-73.0134,-37.8592],[-73.0125,-37.8496],[-73.0335,-37.8374],[-73.0454,-37.8423],[-73.0477,-37.8373],[-73.0234,-37.8044],[-73.0414,-37.7797],[-73.0163,-37.7529],[-73.0235,-37.7215],[-73.0406,-37.7101],[-73.0687,-37.7094],[-73.0811,-37.7206],[-73.1027,-37.7264],[-73.1244,-37.689],[-73.106,-37.6875],[-73.1043,-37.6771],[-73.0802,-37.6763],[-73.0783,-37.6623],[-73.0682,-37.6599],[-73.0698,-37.6502],[-73.0589,-37.6408],[-73.0741,-37.6293],[-73.0708,-37.6209],[-73.057,-37.6262],[-73.0425,-37.6175],[-73.0124,-37.6304],[-73.004,-37.6252],[-73.007,-37.6206],[-72.9962,-37.618],[-72.9469,-37.6134],[-72.927,-37.6196],[-72.9106,-37.6068],[-72.8681,-37.6044],[-72.8531,-37.5903],[-72.8393,-37.5964],[-72.8024,-37.596],[-72.7852,-37.5916],[-72.7761,-37.5817],[-72.7716,-37.5831],[-72.7758,-37.5952]]]}},{"type":"Feature","properties":{"comuna":"Carahue","provincia":"Cautín"},"geometry":{"type":"Polygon","coordinates":[[[-73.5173,-38.4812],[-73.5035,-38.4843],[-73.4943,-38.4721],[-73.4738,-38.4731],[-73.4695,-38.4561],[-73.4374,-38.449],[-73.4308,-38.4313],[-73.3895,-38.41],[-73.3829,-38.3989],[-73.3482,-38.4119],[-73.3204,-38.4376],[-73.3143,-38.4577],[-73.3229,-38.467],[-73.3214,-38.4824],[-73.3068,-38.4923],[-73.2746,-38.4901],[-73.2746,-38.4685],[-73.2858,-38.458],[-73.2755,-38.4499],[-73.2382,-38.4486],[-73.2261,-38.4312],[-73.2281,-38.4001],[-73.2108,-38.3946],[-73.2027,-38.4031],[-73.1834,-38.4068],[-73.1476,-38.4017],[-73.1442,-38.4287],[-73.1355,-38.4371],[-73.1423,-38.4413],[-73.1348,-38.4723],[-73.1281,-38.4711],[-73.1237,-38.4491],[-73.1149,-38.4425],[-73.0896,-38.4519],[-73.0698,-38.475],[-73.0589,-38.4775],[-73.0624,-38.4881],[-73.0493,-38.4977],[-73.055,-38.5098],[-73.0512,-38.5176],[-73.0658,-38.5237],[-73.0864,-38.5172],[-73.1007,-38.5203],[-73.095,-38.5301],[-73.0985,-38.5587],[-73.1259,-38.5686],[-73.1267,-38.5763],[-73.1203,-38.586],[-73.1226,-38.597],[-73.1003,-38.6081],[-73.1038,-38.6157],[-73.094,-38.6438],[-73.101,-38.6663],[-73.0782,-38.6858],[-73.0708,-38.7041],[-73.0799,-38.7172],[-73.0961,-38.7149],[-73.0643,-38.7667],[-73.0768,-38.7865],[-73.0754,-38.8051],[-73.0973,-38.812],[-73.101,-38.8222],[-73.0988,-38.8398],[-73.0867,-38.8477],[-73.1032,-38.8628],[-73.0949,-38.9017],[-73.1318,-38.8919],[-73.1684,-38.9013],[-73.1771,-38.8947],[-73.1846,-38.901],[-73.1856,-38.8701],[-73.1948,-38.859],[-73.1774,-38.8535],[-73.1723,-38.8225],[-73.2253,-38.8108],[-73.2216,-38.8004],[-73.2461,-38.7991],[-73.2492,-38.786],[-73.2627,-38.7813],[-73.2428,-38.7256],[-73.2669,-38.7154],[-73.2715,-38.7017],[-73.3166,-38.6945],[-73.3495,-38.6976],[-73.358,-38.7056],[-73.3529,-38.7369],[-73.3617,-38.7516],[-73.4149,-38.749],[-73.4278,-38.7631],[-73.4886,-38.6569],[-73.4819,-38.6471],[-73.5027,-38.5941],[-73.5015,-38.55],[-73.517,-38.5082],[-73.5119,-38.4964],[-73.5173,-38.4812]]]}},{"type":"Feature","properties":{"comuna":"Cholchol","provincia":"Cautín"},"geometry":{"type":"Polygon","coordinates":[[[-72.7659,-38.5843],[-72.7581,-38.597],[-72.7688,-38.6333],[-72.7592,-38.6414],[-72.7567,-38.6539],[-72.7635,-38.6534],[-72.7714,-38.6727],[-72.7885,-38.6838],[-72.7997,-38.7085],[-72.8121,-38.7139],[-72.8377,-38.7099],[-72.8736,-38.6872],[-72.8871,-38.648],[-72.9072,-38.6597],[-72.9155,-38.6456],[-72.9629,-38.6264],[-72.9695,-38.6349],[-73.0068,-38.6487],[-73.031,-38.6433],[-73.0358,-38.6319],[-73.0477,-38.6248],[-73.0078,-38.5056],[-73.0506,-38.4962],[-73.0624,-38.4881],[-73.0589,-38.4775],[-72.9967,-38.4791],[-72.9865,-38.4598],[-72.9772,-38.4578],[-72.9497,-38.4728],[-72.9435,-38.4824],[-72.9218,-38.4853],[-72.9212,-38.4926],[-72.8906,-38.4899],[-72.8845,-38.4986],[-72.8836,-38.4857],[-72.8746,-38.486],[-72.873,-38.5064],[-72.8455,-38.5207],[-72.8115,-38.5141],[-72.8032,-38.5239],[-72.7906,-38.5465],[-72.7957,-38.5846],[-72.7917,-38.5943],[-72.7834,-38.5864],[-72.7721,-38.5896],[-72.7659,-38.5843]]]}},{"type":"Feature","properties":{"comuna":"Collipulli","provincia":"Malleco"},"geometry":{"type":"Polygon","coordinates":[[[-71.7067,-38.1886],[-71.7069,-38.2017],[-71.7156,-38.2101],[-71.7414,-38.1988],[-71.7629,-38.2046],[-71.8174,-38.2002],[-71.8373,-38.2072],[-71.8365,-38.1991],[-71.8529,-38.1956],[-71.9213,-38.2002],[-71.9441,-38.1919],[-71.9457,-38.1776],[-71.9548,-38.1723],[-71.9719,-38.1786],[-71.9997,-38.1681],[-72.0341,-38.1733],[-72.1171,-38.1233],[-72.1414,-38.1213],[-72.149,-38.1136],[-72.1741,-38.1075],[-72.1926,-38.0905],[-72.2551,-38.0753],[-72.2696,-38.0621],[-72.2919,-38.0652],[-72.3391,-38.0504],[-72.3578,-38.0289],[-72.3816,-38.0235],[-72.3921,-38.0067],[-72.416,-37.9929],[-72.4322,-37.9669],[-72.4372,-37.9703],[-72.4323,-37.9789],[-72.4472,-37.9833],[-72.4568,-37.9649],[-72.4649,-37.9677],[-72.4821,-37.9963],[-72.5026,-37.9779],[-72.4809,-37.9452],[-72.5222,-37.9443],[-72.5379,-37.9353],[-72.5148,-37.9347],[-72.5058,-37.9255],[-72.5084,-37.9167],[-72.5273,-37.9174],[-72.5144,-37.8949],[-72.5287,-37.8883],[-72.5075,-37.8703],[-72.5178,-37.8568],[-72.4821,-37.84],[-72.4864,-37.8289],[-72.4965,-37.8266],[-72.4918,-37.8065],[-72.5135,-37.7964],[-72.5256,-37.7778],[-72.4857,-37.7759],[-72.4617,-37.7846],[-72.4609,-37.7658],[-72.4259,-37.7965],[-72.4147,-37.8234],[-72.4032,-37.8288],[-72.4002,-37.8426],[-72.3868,-37.8502],[-72.3554,-37.8519],[-72.3177,-37.8816],[-72.3063,-37.8755],[-72.2583,-37.8834],[-72.2455,-37.8784],[-72.2374,-37.8891],[-72.2031,-37.9087],[-72.1888,-37.9268],[-72.1461,-37.944],[-72.143,-37.9533],[-72.1302,-37.9524],[-72.1352,-37.9621],[-72.1273,-37.9637],[-72.1224,-37.9803],[-72.1129,-37.9816],[-72.113,-37.9927],[-72.1045,-37.9921],[-72.1009,-37.9988],[-72.0693,-38.0032],[-72.0485,-38.0141],[-72.023,-38.0097],[-72.0198,-38.0036],[-72.0095,-38.0074],[-71.9824,-37.9924],[-71.9663,-37.9939],[-71.9464,-38.0203],[-71.9303,-38.0298],[-71.9321,-38.0441],[-71.9042,-38.0592],[-71.8952,-38.0735],[-71.8767,-38.0782],[-71.8484,-38.055],[-71.7766,-38.0303],[-71.7379,-38.0413],[-71.7007,-38.0695],[-71.6984,-38.0847],[-71.7084,-38.133],[-71.7213,-38.1458],[-71.6942,-38.1687],[-71.6947,-38.1784],[-71.7067,-38.1886]]]}},{"type":"Feature","properties":{"comuna":"Cunco","provincia":"Cautín"},"geometry":{"type":"Polygon","coordinates":[[[-71.5603,-39.0027],[-71.5637,-39.0085],[-71.5572,-39.022],[-71.5634,-39.03],[-71.5453,-39.0456],[-71.5392,-39.0576],[-71.5441,-39.063],[-71.5342,-39.0674],[-71.5383,-39.07],[-71.5645,-39.0666],[-71.5962,-39.0779],[-71.6322,-39.0801],[-71.6157,-39.1069],[-71.6642,-39.1273],[-71.6818,-39.1164],[-71.7323,-39.1078],[-71.7408,-39.0994],[-71.7967,-39.1263],[-71.8174,-39.1268],[-71.8114,-39.1362],[-71.8208,-39.1502],[-71.854,-39.1466],[-71.8677,-39.1607],[-71.8711,-39.1805],[-71.8923,-39.1856],[-71.9097,-39.1708],[-71.9091,-39.1566],[-71.9171,-39.148],[-71.9498,-39.1336],[-71.9609,-39.1205],[-72.0446,-39.1416],[-72.0632,-39.1251],[-72.0822,-39.127],[-72.1391,-39.1025],[-72.1646,-39.1002],[-72.1828,-39.1055],[-72.2148,-39.0965],[-72.2671,-39.1113],[-72.2777,-39.0899],[-72.3097,-39.0711],[-72.301,-39.032],[-72.3152,-39.031],[-72.3507,-39.0055],[-72.3581,-39.0062],[-72.3508,-38.9857],[-72.3408,-38.988],[-72.3253,-38.9494],[-72.3462,-38.94],[-72.3228,-38.8799],[-72.3294,-38.8783],[-72.3251,-38.8665],[-72.3382,-38.8629],[-72.3439,-38.8507],[-72.3265,-38.8551],[-72.3148,-38.8414],[-72.2952,-38.8414],[-72.2924,-38.8349],[-72.2749,-38.8294],[-72.2645,-38.8326],[-72.2249,-38.8086],[-72.186,-38.8086],[-72.1791,-38.8038],[-72.1352,-38.8211],[-72.0942,-38.821],[-72.0704,-38.8294],[-72.0182,-38.8073],[-71.9496,-38.7964],[-71.8877,-38.8168],[-71.8811,-38.8239],[-71.8775,-38.8168],[-71.8914,-38.79],[-71.8874,-38.7847],[-71.8507,-38.7742],[-71.8292,-38.7804],[-71.7927,-38.7358],[-71.7587,-38.7259],[-71.7978,-38.7657],[-71.7949,-38.7907],[-71.8005,-38.8144],[-71.8286,-38.854],[-71.8293,-38.8636],[-71.8542,-38.8844],[-71.8159,-38.8819],[-71.8103,-38.875],[-71.8058,-38.8866],[-71.768,-38.9052],[-71.758,-38.918],[-71.7602,-38.931],[-71.7532,-38.9459],[-71.735,-38.9484],[-71.7222,-38.9753],[-71.7112,-38.9841],[-71.715,-38.9916],[-71.685,-39.0133],[-71.6595,-39.0085],[-71.6312,-38.9939],[-71.6022,-38.9957],[-71.5906,-39.0038],[-71.5603,-39.0027]]]}},{"type":"Feature","properties":{"comuna":"Curacautín","provincia":"Malleco"},"geometry":{"type":"Polygon","coordinates":[[[-71.7156,-38.2101],[-71.688,-38.2453],[-71.6921,-38.2549],[-71.71,-38.2587],[-71.7069,-38.2694],[-71.6734,-38.2995],[-71.619,-38.3242],[-71.5929,-38.3772],[-71.5799,-38.3827],[-71.548,-38.3808],[-71.5367,-38.3681],[-71.5219,-38.3636],[-71.5089,-38.371],[-71.5082,-38.3805],[-71.4763,-38.3895],[-71.4805,-38.4014],[-71.4642,-38.4153],[-71.4845,-38.4362],[-71.4605,-38.4513],[-71.4493,-38.4738],[-71.4636,-38.4873],[-71.4581,-38.5049],[-71.4602,-38.5199],[-71.4695,-38.5301],[-71.5103,-38.5505],[-71.5353,-38.5489],[-71.559,-38.5573],[-71.5872,-38.5734],[-71.5932,-38.5962],[-71.6356,-38.5932],[-71.6808,-38.6061],[-71.6906,-38.6484],[-71.6821,-38.6684],[-71.7683,-38.6379],[-71.8,-38.6369],[-71.7951,-38.6228],[-71.8131,-38.6158],[-71.8206,-38.5951],[-71.8389,-38.5944],[-71.8345,-38.5763],[-71.84,-38.5692],[-71.8524,-38.57],[-71.8664,-38.5511],[-71.8956,-38.5498],[-71.9064,-38.5401],[-71.9444,-38.529],[-72.018,-38.5249],[-72.0477,-38.5121],[-72.0705,-38.5132],[-72.1051,-38.5033],[-72.1114,-38.508],[-72.0876,-38.4478],[-72.0932,-38.4465],[-72.0859,-38.4192],[-72.0405,-38.4132],[-72.0032,-38.3854],[-71.9986,-38.3666],[-71.978,-38.3582],[-71.9796,-38.3503],[-71.9855,-38.353],[-71.985,-38.3423],[-71.972,-38.3307],[-71.9579,-38.2951],[-71.926,-38.2093],[-71.93,-38.1975],[-71.8993,-38.202],[-71.8529,-38.1956],[-71.8365,-38.1991],[-71.8373,-38.2072],[-71.8174,-38.2002],[-71.7629,-38.2046],[-71.7414,-38.1988],[-71.7156,-38.2101]]]}},{"type":"Feature","properties":{"comuna":"Curarrehue","provincia":"Cautín"},"geometry":{"type":"Polygon","coordinates":[[[-71.679,-39.5656],[-71.6967,-39.5622],[-71.6962,-39.5506],[-71.7079,-39.5354],[-71.7027,-39.5031],[-71.7256,-39.4845],[-71.7133,-39.4715],[-71.7104,-39.451],[-71.73,-39.4149],[-71.7389,-39.4126],[-71.73,-39.3972],[-71.7439,-39.3911],[-71.7458,-39.3737],[-71.7425,-39.3678],[-71.7161,-39.3632],[-71.7446,-39.3346],[-71.7261,-39.3394],[-71.7322,-39.3415],[-71.7258,-39.3453],[-71.7054,-39.3431],[-71.6919,-39.3514],[-71.6528,-39.3566],[-71.6354,-39.3514],[-71.6161,-39.3189],[-71.6289,-39.3128],[-71.6263,-39.2908],[-71.646,-39.2723],[-71.6394,-39.2603],[-71.6288,-39.2628],[-71.6079,-39.2449],[-71.5622,-39.2428],[-71.5391,-39.2297],[-71.5174,-39.2263],[-71.5152,-39.2038],[-71.5022,-39.1968],[-71.5039,-39.1843],[-71.5101,-39.1789],[-71.5254,-39.1841],[-71.5472,-39.1607],[-71.5353,-39.1285],[-71.5247,-39.1179],[-71.5295,-39.1121],[-71.5209,-39.1012],[-71.5213,-39.0763],[-71.5441,-39.063],[-71.5392,-39.0576],[-71.5453,-39.0456],[-71.5634,-39.03],[-71.5572,-39.022],[-71.5637,-39.0085],[-71.5603,-39.0027],[-71.5313,-39.0008],[-71.4885,-38.974],[-71.4466,-38.9738],[-71.4273,-38.9928],[-71.4262,-39.0023],[-71.4139,-39.0081],[-71.4215,-39.0256],[-71.4015,-39.0371],[-71.3972,-39.046],[-71.4181,-39.0702],[-71.4073,-39.0971],[-71.4197,-39.1255],[-71.4114,-39.1411],[-71.4212,-39.1512],[-71.4117,-39.1639],[-71.401,-39.1664],[-71.3986,-39.1861],[-71.3822,-39.2099],[-71.383,-39.2171],[-71.3918,-39.2166],[-71.3819,-39.2372],[-71.3919,-39.2499],[-71.3913,-39.2588],[-71.3884,-39.2657],[-71.3752,-39.2689],[-71.3737,-39.2824],[-71.3889,-39.2889],[-71.3952,-39.3026],[-71.3854,-39.3185],[-71.3946,-39.3229],[-71.3994,-39.3497],[-71.4096,-39.3516],[-71.4329,-39.3719],[-71.4575,-39.3716],[-71.4448,-39.4079],[-71.464,-39.4167],[-71.4613,-39.4232],[-71.4512,-39.4243],[-71.4478,-39.4503],[-71.4631,-39.4563],[-71.4631,-39.4712],[-71.4731,-39.492],[-71.517,-39.5032],[-71.5342,-39.5272],[-71.5336,-39.5351],[-71.5109,-39.5473],[-71.5038,-39.5588],[-71.4702,-39.552],[-71.4747,-39.5732],[-71.4608,-39.5825],[-71.4806,-39.6091],[-71.4965,-39.6185],[-71.5026,-39.6371],[-71.5432,-39.6236],[-71.5771,-39.6357],[-71.6096,-39.6279],[-71.6232,-39.5928],[-71.635,-39.5859],[-71.6555,-39.5877],[-71.6734,-39.5638],[-71.679,-39.5656]]]}},{"type":"Feature","properties":{"comuna":"Ercilla","provincia":"Malleco"},"geometry":{"type":"Polygon","coordinates":[[[-71.9845,-38.1772],[-71.9898,-38.1881],[-72.0025,-38.1842],[-72.0141,-38.1883],[-72.0839,-38.175],[-72.1177,-38.1776],[-72.1587,-38.1703],[-72.1793,-38.1759],[-72.2229,-38.1687],[-72.2305,-38.1601],[-72.2634,-38.1634],[-72.2812,-38.1557],[-72.2879,-38.1603],[-72.3077,-38.1473],[-72.3583,-38.1512],[-72.3685,-38.1578],[-72.3956,-38.1478],[-72.4103,-38.1522],[-72.4261,-38.1428],[-72.4502,-38.1476],[-72.4534,-38.1393],[-72.4435,-38.1217],[-72.4632,-38.0981],[-72.4968,-38.0855],[-72.522,-38.0858],[-72.5388,-38.07],[-72.5634,-38.0735],[-72.5724,-38.0619],[-72.5762,-38.0272],[-72.5637,-38.0172],[-72.5655,-38.0],[-72.5464,-38.0027],[-72.5413,-37.9901],[-72.5451,-37.9667],[-72.5547,-37.9525],[-72.5508,-37.9479],[-72.5572,-37.9417],[-72.5379,-37.9353],[-72.5222,-37.9443],[-72.4809,-37.9452],[-72.5026,-37.9779],[-72.4821,-37.9963],[-72.4649,-37.9677],[-72.4568,-37.9649],[-72.4472,-37.9833],[-72.4323,-37.9789],[-72.4372,-37.9703],[-72.4322,-37.9669],[-72.416,-37.9929],[-72.3921,-38.0067],[-72.3816,-38.0235],[-72.3578,-38.0289],[-72.3391,-38.0504],[-72.2919,-38.0652],[-72.2696,-38.0621],[-72.2551,-38.0753],[-72.1926,-38.0905],[-72.1741,-38.1075],[-72.149,-38.1136],[-72.1414,-38.1213],[-72.1171,-38.1233],[-72.0341,-38.1733],[-71.9997,-38.1681],[-71.9845,-38.1772]]]}},{"type":"Feature","properties":{"comuna":"Freire","provincia":"Cautín"},"geometry":{"type":"Polygon","coordinates":[[[-72.3338,-38.9081],[-72.3462,-38.94],[-72.3253,-38.9494],[-72.3408,-38.988],[-72.3508,-38.9857],[-72.3581,-39.0062],[-72.3507,-39.0055],[-72.3152,-39.031],[-72.301,-39.032],[-72.3111,-39.0615],[-72.3188,-39.0597],[-72.3321,-39.0941],[-72.3581,-39.0882],[-72.3694,-39.1196],[-72.381,-39.109],[-72.4113,-39.1018],[-72.4186,-39.0907],[-72.4751,-39.0767],[-72.4831,-39.0696],[-72.4954,-39.0724],[-72.5235,-39.0339],[-72.5174,-39.0185],[-72.529,-39.0088],[-72.555,-39.0069],[-72.585,-38.987],[-72.6023,-38.9905],[-72.624,-38.9851],[-72.6399,-38.972],[-72.6785,-38.984],[-72.7039,-39.0048],[-72.7406,-39.0056],[-72.7696,-38.9959],[-72.8063,-39.0133],[-72.8097,-39.0264],[-72.8214,-39.035],[-72.8492,-39.032],[-72.8573,-39.0223],[-72.9148,-39.0221],[-72.871,-38.9103],[-72.8263,-38.9115],[-72.8184,-38.9053],[-72.7992,-38.8533],[-72.8082,-38.8477],[-72.8083,-38.8368],[-72.8177,-38.835],[-72.8132,-38.8265],[-72.7798,-38.8417],[-72.7396,-38.8359],[-72.7212,-38.8382],[-72.7168,-38.8459],[-72.7073,-38.8445],[-72.7105,-38.8359],[-72.7042,-38.8318],[-72.6867,-38.8378],[-72.6699,-38.831],[-72.6556,-38.838],[-72.6367,-38.8258],[-72.6346,-38.8372],[-72.625,-38.8389],[-72.622,-38.8527],[-72.6029,-38.8527],[-72.6025,-38.8629],[-72.5724,-38.8712],[-72.5641,-38.868],[-72.5662,-38.8731],[-72.5507,-38.8677],[-72.5425,-38.8765],[-72.5436,-38.8677],[-72.5137,-38.8659],[-72.51,-38.8775],[-72.4545,-38.8843],[-72.4339,-38.8794],[-72.3721,-38.8981],[-72.3496,-38.8993],[-72.3338,-38.9081]]]}},{"type":"Feature","properties":{"comuna":"Galvarino","provincia":"Cautín"},"geometry":{"type":"Polygon","coordinates":[[[-72.7762,-38.3329],[-72.75,-38.3431],[-72.763,-38.3459],[-72.7425,-38.368],[-72.7009,-38.3657],[-72.6737,-38.3872],[-72.6824,-38.3902],[-72.6902,-38.4173],[-72.6644,-38.4173],[-72.6296,-38.4335],[-72.6094,-38.45],[-72.609,-38.4774],[-72.6106,-38.4879],[-72.6347,-38.5132],[-72.6278,-38.5424],[-72.6352,-38.552],[-72.7088,-38.5494],[-72.7158,-38.5657],[-72.743,-38.5652],[-72.7533,-38.5821],[-72.763,-38.581],[-72.7698,-38.5893],[-72.7834,-38.5864],[-72.7917,-38.5943],[-72.7957,-38.5846],[-72.7906,-38.5465],[-72.8115,-38.5141],[-72.8455,-38.5207],[-72.873,-38.5064],[-72.8746,-38.486],[-72.8836,-38.4857],[-72.8845,-38.4986],[-72.8906,-38.4899],[-72.9212,-38.4926],[-72.9218,-38.4853],[-72.9435,-38.4824],[-72.9497,-38.4728],[-72.9772,-38.4578],[-72.9891,-38.4616],[-72.9796,-38.4337],[-72.9816,-38.4206],[-73.0047,-38.4121],[-72.9849,-38.4077],[-72.9761,-38.3941],[-72.9572,-38.3891],[-72.9534,-38.3595],[-72.9275,-38.3638],[-72.9133,-38.3558],[-72.8904,-38.3573],[-72.8741,-38.345],[-72.8727,-38.3495],[-72.8495,-38.349],[-72.851,-38.3441],[-72.841,-38.3386],[-72.8147,-38.3323],[-72.8089,-38.3373],[-72.7936,-38.322],[-72.777,-38.3214],[-72.7762,-38.3329]]]}},{"type":"Feature","properties":{"comuna":"Gorbea","provincia":"Cautín"},"geometry":{"type":"Polygon","coordinates":[[[-72.4077,-39.2149],[-72.4141,-39.2318],[-72.4355,-39.2265],[-72.4427,-39.2437],[-72.4528,-39.2414],[-72.4586,-39.2584],[-72.5579,-39.2349],[-72.5627,-39.2468],[-72.5527,-39.2516],[-72.5528,-39.2653],[-72.5387,-39.2771],[-72.6755,-39.2446],[-72.6723,-39.2525],[-72.6806,-39.2502],[-72.6919,-39.2568],[-72.71,-39.2525],[-72.7336,-39.2688],[-72.8364,-39.2511],[-72.8568,-39.2899],[-72.8668,-39.2878],[-72.8587,-39.2636],[-72.8523,-39.2606],[-72.8642,-39.2166],[-72.887,-39.2061],[-72.8766,-39.1895],[-72.9287,-39.144],[-72.866,-39.1353],[-72.8282,-39.1483],[-72.8158,-39.0992],[-72.7806,-39.1023],[-72.7534,-39.0349],[-72.7308,-39.032],[-72.7362,-39.0373],[-72.7238,-39.039],[-72.7311,-39.0441],[-72.7189,-39.0426],[-72.7123,-39.0522],[-72.7084,-39.0412],[-72.7017,-39.0429],[-72.7045,-39.0505],[-72.5902,-39.0788],[-72.5964,-39.0946],[-72.5049,-39.1163],[-72.5112,-39.1329],[-72.4711,-39.1418],[-72.4793,-39.161],[-72.4491,-39.1675],[-72.4533,-39.1849],[-72.4027,-39.1971],[-72.4077,-39.2149]]]}},{"type":"Feature","properties":{"comuna":"Lautaro","provincia":"Cautín"},"geometry":{"type":"Polygon","coordinates":[[[-72.0865,-38.425],[-72.0932,-38.4465],[-72.0876,-38.4478],[-72.1114,-38.508],[-72.1051,-38.5033],[-72.0705,-38.5132],[-72.0477,-38.5121],[-72.018,-38.5249],[-71.9444,-38.529],[-71.9064,-38.5401],[-71.8956,-38.5498],[-71.8664,-38.5511],[-71.8524,-38.57],[-71.8745,-38.5782],[-71.8874,-38.6031],[-71.9481,-38.6069],[-72.0062,-38.6206],[-72.0324,-38.6029],[-72.0855,-38.6004],[-72.1024,-38.5873],[-72.1296,-38.6016],[-72.1557,-38.5962],[-72.156,-38.588],[-72.1489,-38.5897],[-72.1352,-38.5722],[-72.157,-38.5672],[-72.1602,-38.5757],[-72.2218,-38.5577],[-72.2538,-38.5578],[-72.2589,-38.5667],[-72.2972,-38.5663],[-72.3002,-38.575],[-72.31,-38.5748],[-72.3067,-38.5818],[-72.3215,-38.6103],[-72.3661,-38.6255],[-72.3693,-38.6326],[-72.3965,-38.6373],[-72.4083,-38.6525],[-72.4325,-38.6588],[-72.4406,-38.6702],[-72.4608,-38.6653],[-72.4541,-38.6485],[-72.5079,-38.6349],[-72.5214,-38.6496],[-72.5324,-38.6327],[-72.5496,-38.6431],[-72.5702,-38.6369],[-72.5894,-38.612],[-72.5893,-38.5826],[-72.6134,-38.5735],[-72.6395,-38.5517],[-72.6278,-38.5424],[-72.6347,-38.5132],[-72.6099,-38.486],[-72.6106,-38.4528],[-72.6053,-38.462],[-72.5974,-38.4611],[-72.5835,-38.4728],[-72.5891,-38.4776],[-72.5781,-38.4854],[-72.5792,-38.4973],[-72.5731,-38.4952],[-72.576,-38.4895],[-72.5665,-38.4941],[-72.5507,-38.4874],[-72.5552,-38.4939],[-72.5462,-38.5021],[-72.5481,-38.5105],[-72.529,-38.5141],[-72.5173,-38.5104],[-72.5017,-38.487],[-72.4767,-38.4756],[-72.4462,-38.4792],[-72.4233,-38.4659],[-72.346,-38.4825],[-72.3202,-38.4728],[-72.3045,-38.4545],[-72.2765,-38.4477],[-72.2409,-38.4553],[-72.1971,-38.4441],[-72.163,-38.4233],[-72.12,-38.4196],[-72.0865,-38.425]]]}},{"type":"Feature","properties":{"comuna":"Loncoche","provincia":"Cautín"},"geometry":{"type":"Polygon","coordinates":[[[-72.8336,-39.4115],[-72.8446,-39.4128],[-72.857,-39.3975],[-72.8674,-39.3983],[-72.8691,-39.4146],[-72.884,-39.4126],[-72.8853,-39.4243],[-72.897,-39.4325],[-72.897,-39.3924],[-72.9018,-39.3883],[-72.8997,-39.3804],[-72.8757,-39.3721],[-72.8571,-39.3566],[-72.8613,-39.3471],[-72.8575,-39.3342],[-72.8465,-39.3324],[-72.8356,-39.3212],[-72.8335,-39.3108],[-72.8431,-39.3069],[-72.8454,-39.295],[-72.8529,-39.2903],[-72.8364,-39.2511],[-72.7336,-39.2688],[-72.71,-39.2525],[-72.6919,-39.2568],[-72.6806,-39.2502],[-72.6723,-39.2525],[-72.6755,-39.2446],[-72.5387,-39.2771],[-72.5528,-39.2653],[-72.5527,-39.2516],[-72.5627,-39.2468],[-72.5579,-39.2349],[-72.4586,-39.2584],[-72.4528,-39.2414],[-72.4427,-39.2437],[-72.4355,-39.2265],[-72.4141,-39.2318],[-72.4077,-39.2149],[-72.3469,-39.2292],[-72.3606,-39.2644],[-72.3935,-39.2691],[-72.3885,-39.2867],[-72.3834,-39.2837],[-72.349,-39.3037],[-72.3533,-39.3297],[-72.3481,-39.3361],[-72.3956,-39.3597],[-72.4368,-39.3627],[-72.4096,-39.3722],[-72.3823,-39.3723],[-72.3663,-39.3931],[-72.3396,-39.3991],[-72.347,-39.4213],[-72.3409,-39.4212],[-72.3402,-39.4285],[-72.3446,-39.4506],[-72.3542,-39.4614],[-72.3426,-39.4694],[-72.3423,-39.4778],[-72.2996,-39.497],[-72.3224,-39.5086],[-72.3432,-39.5093],[-72.3796,-39.5046],[-72.4177,-39.4801],[-72.4399,-39.4749],[-72.4754,-39.4794],[-72.5063,-39.4718],[-72.5171,-39.477],[-72.5324,-39.4337],[-72.5919,-39.4501],[-72.6206,-39.4447],[-72.658,-39.4603],[-72.6745,-39.4519],[-72.6802,-39.4379],[-72.7134,-39.426],[-72.7277,-39.4283],[-72.7428,-39.4415],[-72.7734,-39.4279],[-72.79,-39.431],[-72.7838,-39.4229],[-72.7932,-39.405],[-72.8336,-39.4115]]]}},{"type":"Feature","properties":{"comuna":"Lonquimay","provincia":"Malleco"},"geometry":{"type":"Polygon","coordinates":[[[-71.2362,-38.0984],[-71.1916,-38.1057],[-71.1802,-38.1005],[-71.1632,-38.1114],[-71.135,-38.1022],[-71.1202,-38.1056],[-71.1102,-38.0919],[-71.0943,-38.0948],[-71.0853,-38.0896],[-71.032,-38.131],[-71.0248,-38.1497],[-71.0106,-38.1537],[-71.0097,-38.1627],[-70.9956,-38.1707],[-70.9965,-38.2016],[-71.0011,-38.2106],[-71.021,-38.2142],[-71.0177,-38.2388],[-71.0323,-38.2499],[-71.0093,-38.2624],[-71.0099,-38.282],[-70.997,-38.2915],[-71.0026,-38.3247],[-70.9962,-38.3563],[-70.9821,-38.3649],[-70.9863,-38.3753],[-70.9799,-38.4147],[-70.9835,-38.4311],[-70.9772,-38.4433],[-70.9574,-38.4444],[-70.9282,-38.4736],[-70.9276,-38.4845],[-70.9103,-38.5039],[-70.8666,-38.5143],[-70.8641,-38.5248],[-70.8417,-38.5395],[-70.8332,-38.569],[-70.8356,-38.5867],[-70.8274,-38.5955],[-70.836,-38.6123],[-70.885,-38.6433],[-70.9033,-38.6678],[-70.9059,-38.6761],[-70.8983,-38.6912],[-70.8835,-38.7018],[-70.8905,-38.7204],[-70.9048,-38.7278],[-70.9251,-38.7635],[-70.9763,-38.7597],[-71.0016,-38.7692],[-71.0207,-38.7603],[-71.0512,-38.7578],[-71.0694,-38.7689],[-71.0957,-38.7549],[-71.1079,-38.7747],[-71.1346,-38.7815],[-71.1504,-38.7998],[-71.1812,-38.8028],[-71.1859,-38.8145],[-71.2118,-38.8164],[-71.2385,-38.8022],[-71.2658,-38.8257],[-71.2681,-38.853],[-71.284,-38.8571],[-71.2947,-38.8712],[-71.3144,-38.8796],[-71.3389,-38.8771],[-71.3629,-38.8913],[-71.3736,-38.9057],[-71.3943,-38.9096],[-71.4082,-38.904],[-71.4145,-38.888],[-71.4048,-38.8771],[-71.4163,-38.8472],[-71.3955,-38.8417],[-71.3889,-38.8325],[-71.3956,-38.819],[-71.4371,-38.7812],[-71.4768,-38.7705],[-71.479,-38.7572],[-71.4935,-38.7631],[-71.5132,-38.7532],[-71.5007,-38.7462],[-71.4953,-38.7294],[-71.5051,-38.7271],[-71.5173,-38.7335],[-71.5286,-38.7156],[-71.5367,-38.7148],[-71.5342,-38.7028],[-71.4919,-38.6626],[-71.512,-38.6673],[-71.5152,-38.6507],[-71.5319,-38.6504],[-71.5475,-38.629],[-71.5664,-38.623],[-71.5854,-38.6074],[-71.5909,-38.5932],[-71.5872,-38.5734],[-71.559,-38.5573],[-71.5353,-38.5489],[-71.5103,-38.5505],[-71.4602,-38.5199],[-71.4636,-38.4873],[-71.4497,-38.4714],[-71.4605,-38.4513],[-71.4793,-38.4438],[-71.4846,-38.435],[-71.4642,-38.4153],[-71.4805,-38.4014],[-71.4763,-38.3895],[-71.5082,-38.3805],[-71.5089,-38.371],[-71.5219,-38.3636],[-71.5367,-38.3681],[-71.548,-38.3808],[-71.59,-38.3792],[-71.619,-38.3242],[-71.643,-38.3136],[-71.6339,-38.2953],[-71.6332,-38.275],[-71.6263,-38.2606],[-71.6087,-38.2498],[-71.6086,-38.2409],[-71.5799,-38.2311],[-71.554,-38.2462],[-71.5305,-38.2264],[-71.5361,-38.2129],[-71.5318,-38.204],[-71.5098,-38.2093],[-71.488,-38.1917],[-71.449,-38.1765],[-71.436,-38.177],[-71.411,-38.1344],[-71.4131,-38.1073],[-71.3788,-38.086],[-71.3035,-38.0902],[-71.2957,-38.1084],[-71.2829,-38.1104],[-71.2617,-38.0972],[-71.2362,-38.0984]]]}},{"type":"Feature","properties":{"comuna":"Los Sauces","provincia":"Malleco"},"geometry":{"type":"Polygon","coordinates":[[[-72.5892,-38.0185],[-72.5739,-38.0226],[-72.5724,-38.0619],[-72.5609,-38.0784],[-72.6014,-38.1068],[-72.6144,-38.1036],[-72.6337,-38.1108],[-72.6309,-38.1164],[-72.6392,-38.1218],[-72.6651,-38.1239],[-72.6745,-38.1123],[-72.7052,-38.1101],[-72.7403,-38.0918],[-72.7553,-38.1093],[-72.7616,-38.1054],[-72.7885,-38.1241],[-72.809,-38.1213],[-72.8178,-38.1297],[-72.8535,-38.1351],[-72.8713,-38.1172],[-72.8907,-38.1082],[-72.8734,-38.0801],[-72.9006,-38.0643],[-72.8956,-38.0544],[-72.9044,-38.0418],[-72.9337,-38.0185],[-72.9544,-38.0132],[-72.9508,-37.9869],[-72.9676,-37.9849],[-72.9942,-37.96],[-72.9911,-37.948],[-72.9999,-37.9355],[-72.9922,-37.9366],[-72.9908,-37.9306],[-72.9963,-37.9332],[-73.0271,-37.9189],[-73.033,-37.9057],[-73.0228,-37.9039],[-73.0282,-37.8989],[-73.0247,-37.8947],[-73.0115,-37.893],[-73.0309,-37.8872],[-73.03,-37.8795],[-73.0198,-37.8739],[-73.0167,-37.8591],[-72.9629,-37.847],[-72.9633,-37.8539],[-72.9362,-37.8397],[-72.803,-37.8376],[-72.7818,-37.8628],[-72.7717,-37.8664],[-72.7842,-37.8714],[-72.7774,-37.8936],[-72.7267,-37.9057],[-72.711,-37.9036],[-72.692,-37.9167],[-72.6901,-37.9071],[-72.6752,-37.8975],[-72.6588,-37.8914],[-72.6521,-37.8959],[-72.6403,-37.9092],[-72.642,-37.921],[-72.632,-37.9226],[-72.6364,-37.9343],[-72.6204,-37.945],[-72.6273,-37.9714],[-72.6192,-37.971],[-72.6199,-37.9858],[-72.6037,-37.9962],[-72.6032,-38.0211],[-72.5892,-38.0185]]]}},{"type":"Feature","properties":{"comuna":"Lumaco","provincia":"Malleco"},"geometry":{"type":"Polygon","coordinates":[[[-72.8754,-38.0829],[-72.8907,-38.1082],[-72.8713,-38.1172],[-72.8586,-38.133],[-72.8337,-38.1337],[-72.809,-38.1213],[-72.7885,-38.1241],[-72.7939,-38.1335],[-72.7874,-38.1571],[-72.7905,-38.1833],[-72.8236,-38.1878],[-72.816,-38.1914],[-72.8156,-38.2047],[-72.8104,-38.2058],[-72.8073,-38.2317],[-72.8146,-38.2438],[-72.8054,-38.2749],[-72.8546,-38.2733],[-72.8975,-38.2821],[-72.8868,-38.2867],[-72.8925,-38.2874],[-72.8901,-38.3063],[-72.9005,-38.3108],[-72.8987,-38.3172],[-72.8921,-38.317],[-72.8942,-38.3252],[-72.8841,-38.3271],[-72.8971,-38.3324],[-72.8911,-38.3511],[-72.9275,-38.3638],[-72.9557,-38.3603],[-72.9572,-38.3891],[-72.9761,-38.3941],[-72.9849,-38.4077],[-73.0041,-38.4103],[-72.9816,-38.4206],[-72.9796,-38.4337],[-72.9951,-38.4781],[-73.061,-38.4783],[-73.0896,-38.4519],[-73.1149,-38.4425],[-73.1237,-38.4491],[-73.1281,-38.4711],[-73.1348,-38.4723],[-73.1423,-38.4413],[-73.1355,-38.4371],[-73.1442,-38.4287],[-73.1476,-38.4017],[-73.1834,-38.4068],[-73.2027,-38.4031],[-73.2108,-38.3946],[-73.2281,-38.4001],[-73.2261,-38.4312],[-73.2382,-38.4486],[-73.2755,-38.4499],[-73.2858,-38.458],[-73.2884,-38.4509],[-73.2721,-38.436],[-73.2994,-38.4231],[-73.309,-38.4118],[-73.3019,-38.3824],[-73.3081,-38.3818],[-73.3095,-38.3738],[-73.3411,-38.3659],[-73.3236,-38.3363],[-73.2655,-38.2853],[-73.222,-38.2717],[-73.2223,-38.2577],[-73.1994,-38.2426],[-73.2012,-38.2311],[-73.174,-38.2272],[-73.1615,-38.2169],[-73.1381,-38.2154],[-73.132,-38.184],[-73.0913,-38.1905],[-73.077,-38.1735],[-73.0886,-38.1425],[-73.0485,-38.1566],[-73.0404,-38.1488],[-73.0374,-38.1308],[-72.9953,-38.1108],[-72.974,-38.1153],[-72.9808,-38.1278],[-72.9432,-38.1247],[-72.9285,-38.1125],[-72.9149,-38.0717],[-72.8966,-38.076],[-72.8846,-38.0713],[-72.8754,-38.0829]]]}},{"type":"Feature","properties":{"comuna":"Melipeuco","provincia":"Cautín"},"geometry":{"type":"Polygon","coordinates":[[[-71.4405,-38.9779],[-71.4703,-38.9713],[-71.4885,-38.974],[-71.5025,-38.987],[-71.5433,-39.0033],[-71.5906,-39.0038],[-71.6022,-38.9957],[-71.6312,-38.9939],[-71.6595,-39.0085],[-71.685,-39.0133],[-71.715,-38.9916],[-71.7112,-38.9841],[-71.7222,-38.9753],[-71.735,-38.9484],[-71.7532,-38.9459],[-71.7602,-38.931],[-71.758,-38.918],[-71.768,-38.9052],[-71.8058,-38.8866],[-71.8103,-38.875],[-71.8159,-38.8819],[-71.8542,-38.8844],[-71.8293,-38.8636],[-71.8286,-38.854],[-71.8072,-38.8279],[-71.7949,-38.7907],[-71.7978,-38.7657],[-71.7895,-38.754],[-71.7587,-38.7259],[-71.7302,-38.7239],[-71.7255,-38.7115],[-71.7306,-38.6969],[-71.681,-38.6667],[-71.6906,-38.6484],[-71.6808,-38.6061],[-71.6356,-38.5932],[-71.6028,-38.598],[-71.5909,-38.5932],[-71.5854,-38.6074],[-71.5664,-38.623],[-71.5475,-38.629],[-71.5319,-38.6504],[-71.5152,-38.6507],[-71.512,-38.6673],[-71.4919,-38.6626],[-71.5342,-38.7028],[-71.5359,-38.7166],[-71.5286,-38.7156],[-71.5173,-38.7335],[-71.5051,-38.7271],[-71.4953,-38.7294],[-71.5007,-38.7462],[-71.5132,-38.7532],[-71.4935,-38.7631],[-71.479,-38.7572],[-71.4768,-38.7705],[-71.4644,-38.7776],[-71.4371,-38.7812],[-71.4281,-38.7947],[-71.4089,-38.802],[-71.3891,-38.8312],[-71.3968,-38.8426],[-71.4163,-38.8472],[-71.4048,-38.8771],[-71.4145,-38.888],[-71.4082,-38.904],[-71.3931,-38.911],[-71.4335,-38.9291],[-71.4387,-38.9422],[-71.4329,-38.9773],[-71.4405,-38.9779]]]}},{"type":"Feature","properties":{"comuna":"Nueva Imperial","provincia":"Cautín"},"geometry":{"type":"Polygon","coordinates":[[[-72.8156,-38.7145],[-72.8186,-38.7387],[-72.8122,-38.7418],[-72.8403,-38.8088],[-72.8142,-38.8213],[-72.8177,-38.835],[-72.8083,-38.8368],[-72.8082,-38.8477],[-72.7992,-38.8533],[-72.8231,-38.9102],[-72.8667,-38.9078],[-72.8727,-38.9132],[-72.8808,-38.9029],[-72.8785,-38.8918],[-72.8888,-38.889],[-72.9345,-38.9024],[-72.9552,-38.8929],[-72.9602,-38.902],[-72.9939,-38.8947],[-73.0031,-38.8998],[-73.0184,-38.897],[-73.0302,-38.9129],[-73.0414,-38.8995],[-73.0664,-38.8917],[-73.0949,-38.9017],[-73.1032,-38.8628],[-73.0867,-38.8477],[-73.0988,-38.8398],[-73.101,-38.8222],[-73.0973,-38.812],[-73.0754,-38.8051],[-73.0768,-38.7865],[-73.0643,-38.7667],[-73.0961,-38.7149],[-73.0799,-38.7172],[-73.0708,-38.7041],[-73.0782,-38.6858],[-73.101,-38.6663],[-73.094,-38.6438],[-73.1038,-38.6157],[-73.1003,-38.6081],[-73.1226,-38.597],[-73.1203,-38.586],[-73.1267,-38.5763],[-73.1259,-38.5686],[-73.0985,-38.5587],[-73.095,-38.5301],[-73.1007,-38.5203],[-73.0864,-38.5172],[-73.0658,-38.5237],[-73.0512,-38.5176],[-73.055,-38.5098],[-73.0506,-38.4962],[-73.0078,-38.5056],[-73.0419,-38.5975],[-73.035,-38.5992],[-73.047,-38.6269],[-73.0358,-38.6319],[-73.031,-38.6433],[-73.0068,-38.6487],[-72.9695,-38.6349],[-72.9629,-38.6264],[-72.9155,-38.6456],[-72.9072,-38.6597],[-72.8871,-38.648],[-72.8736,-38.6872],[-72.8377,-38.7099],[-72.8156,-38.7145]]]}},{"type":"Feature","properties":{"comuna":"Padre Las Casas","provincia":"Cautín"},"geometry":{"type":"Polygon","coordinates":[[[-72.3439,-38.8507],[-72.3382,-38.8629],[-72.3251,-38.8665],[-72.3294,-38.8783],[-72.3228,-38.8799],[-72.3338,-38.9081],[-72.3496,-38.8993],[-72.3721,-38.8981],[-72.4339,-38.8794],[-72.4545,-38.8843],[-72.51,-38.8775],[-72.5137,-38.8659],[-72.5436,-38.8677],[-72.5425,-38.8765],[-72.5507,-38.8677],[-72.5662,-38.8731],[-72.5641,-38.868],[-72.5724,-38.8712],[-72.6025,-38.8629],[-72.6029,-38.8527],[-72.622,-38.8527],[-72.625,-38.8389],[-72.6346,-38.8372],[-72.6367,-38.8258],[-72.6556,-38.838],[-72.6699,-38.831],[-72.6867,-38.8378],[-72.7042,-38.8318],[-72.7123,-38.8459],[-72.7212,-38.8382],[-72.7396,-38.8359],[-72.775,-38.8423],[-72.7911,-38.8332],[-72.8047,-38.8333],[-72.8142,-38.8213],[-72.8403,-38.8088],[-72.8213,-38.7768],[-72.7896,-38.7821],[-72.7263,-38.7759],[-72.7186,-38.7649],[-72.6901,-38.7659],[-72.6822,-38.7746],[-72.6685,-38.7678],[-72.6648,-38.7588],[-72.6509,-38.7646],[-72.6059,-38.7585],[-72.5514,-38.7331],[-72.5477,-38.72],[-72.5177,-38.6981],[-72.5109,-38.6849],[-72.4891,-38.6856],[-72.4685,-38.6977],[-72.4488,-38.7009],[-72.4671,-38.7142],[-72.4717,-38.7269],[-72.4369,-38.7207],[-72.3795,-38.738],[-72.393,-38.7471],[-72.3834,-38.746],[-72.3858,-38.7514],[-72.4038,-38.7551],[-72.4025,-38.7614],[-72.4142,-38.7665],[-72.4174,-38.7742],[-72.4125,-38.777],[-72.4198,-38.7863],[-72.4131,-38.7895],[-72.4235,-38.7963],[-72.4223,-38.8022],[-72.4514,-38.8203],[-72.43,-38.8196],[-72.4343,-38.8423],[-72.4121,-38.8556],[-72.4015,-38.8559],[-72.4057,-38.8493],[-72.3905,-38.8495],[-72.3869,-38.8432],[-72.3774,-38.8509],[-72.3439,-38.8507]]]}},{"type":"Feature","properties":{"comuna":"Perquenco","provincia":"Cautín"},"geometry":{"type":"Polygon","coordinates":[[[-72.2623,-38.4515],[-72.2765,-38.4477],[-72.3045,-38.4545],[-72.3202,-38.4728],[-72.346,-38.4825],[-72.4233,-38.4659],[-72.4462,-38.4792],[-72.4767,-38.4756],[-72.5017,-38.487],[-72.5173,-38.5104],[-72.529,-38.5141],[-72.5481,-38.5105],[-72.5462,-38.5021],[-72.5552,-38.4939],[-72.5507,-38.4874],[-72.5665,-38.4941],[-72.576,-38.4895],[-72.5731,-38.4952],[-72.5792,-38.4973],[-72.5781,-38.4854],[-72.5891,-38.4776],[-72.5835,-38.4728],[-72.5974,-38.4611],[-72.6053,-38.462],[-72.6105,-38.4484],[-72.6403,-38.4275],[-72.6359,-38.4213],[-72.5876,-38.4269],[-72.5707,-38.4257],[-72.5555,-38.4148],[-72.5487,-38.4185],[-72.5233,-38.3592],[-72.4949,-38.37],[-72.4707,-38.3657],[-72.4568,-38.3699],[-72.4404,-38.3588],[-72.4091,-38.3578],[-72.3941,-38.3511],[-72.3499,-38.3607],[-72.3581,-38.3832],[-72.2719,-38.4034],[-72.2364,-38.3822],[-72.2538,-38.4321],[-72.2592,-38.431],[-72.2623,-38.4515]]]}},{"type":"Feature","properties":{"comuna":"Pitrufquén","provincia":"Cautín"},"geometry":{"type":"Polygon","coordinates":[[[-72.3694,-39.1196],[-72.3563,-39.1215],[-72.3388,-39.1461],[-72.3463,-39.1497],[-72.3293,-39.1698],[-72.3335,-39.1892],[-72.3268,-39.1898],[-72.3295,-39.199],[-72.3183,-39.212],[-72.32,-39.222],[-72.3151,-39.2294],[-72.3108,-39.2271],[-72.3163,-39.2373],[-72.409,-39.2147],[-72.4027,-39.1971],[-72.4533,-39.1849],[-72.4491,-39.1675],[-72.4793,-39.161],[-72.4711,-39.1418],[-72.5112,-39.1329],[-72.5049,-39.1163],[-72.5964,-39.0946],[-72.5902,-39.0788],[-72.7045,-39.0505],[-72.7017,-39.0429],[-72.7084,-39.0412],[-72.7123,-39.0522],[-72.7189,-39.0426],[-72.7311,-39.0441],[-72.7238,-39.039],[-72.7362,-39.0373],[-72.7308,-39.032],[-72.7534,-39.0349],[-72.7806,-39.1023],[-72.8158,-39.0992],[-72.8282,-39.1483],[-72.866,-39.1353],[-72.9276,-39.1427],[-72.9426,-39.1498],[-72.9708,-39.1383],[-72.9877,-39.1099],[-72.9871,-39.075],[-72.9778,-39.0584],[-72.9846,-39.0468],[-72.9761,-39.0324],[-72.9799,-39.0245],[-72.9873,-39.0268],[-72.9969,-39.0202],[-72.9691,-39.012],[-72.9305,-39.025],[-72.9054,-39.025],[-72.8958,-39.0187],[-72.8883,-39.0235],[-72.8573,-39.0223],[-72.8492,-39.032],[-72.8214,-39.035],[-72.8097,-39.0264],[-72.8063,-39.0133],[-72.7696,-38.9959],[-72.7406,-39.0056],[-72.7039,-39.0048],[-72.6785,-38.984],[-72.6399,-38.972],[-72.624,-38.9851],[-72.6023,-38.9905],[-72.585,-38.987],[-72.555,-39.0069],[-72.529,-39.0088],[-72.5174,-39.0185],[-72.5235,-39.0339],[-72.4954,-39.0724],[-72.4831,-39.0696],[-72.4751,-39.0767],[-72.4186,-39.0907],[-72.4113,-39.1018],[-72.381,-39.109],[-72.3694,-39.1196]]]}},{"type":"Feature","properties":{"comuna":"Pucón","provincia":"Cautín"},"geometry":{"type":"Polygon","coordinates":[[[-71.5342,-39.0674],[-71.5213,-39.0763],[-71.5205,-39.0991],[-71.5472,-39.1607],[-71.5254,-39.1841],[-71.5101,-39.1789],[-71.5039,-39.1843],[-71.5022,-39.1968],[-71.5152,-39.2038],[-71.5174,-39.2263],[-71.5391,-39.2297],[-71.5622,-39.2428],[-71.6079,-39.2449],[-71.6288,-39.2628],[-71.6394,-39.2603],[-71.646,-39.2723],[-71.6263,-39.2908],[-71.6289,-39.3128],[-71.6161,-39.3189],[-71.6354,-39.3514],[-71.6528,-39.3566],[-71.6919,-39.3514],[-71.7054,-39.3431],[-71.7258,-39.3453],[-71.7322,-39.3415],[-71.7261,-39.3394],[-71.7446,-39.3346],[-71.7161,-39.3632],[-71.7425,-39.3678],[-71.7458,-39.3737],[-71.7439,-39.3911],[-71.73,-39.3972],[-71.7389,-39.4126],[-71.73,-39.4149],[-71.7104,-39.451],[-71.7142,-39.4734],[-71.7253,-39.4803],[-71.7188,-39.4936],[-71.7231,-39.4963],[-71.7608,-39.5085],[-71.7943,-39.4901],[-71.811,-39.4896],[-71.8181,-39.4772],[-71.8422,-39.4698],[-71.8614,-39.4352],[-71.9864,-39.413],[-71.9854,-39.3877],[-72.0055,-39.3719],[-72.0119,-39.3526],[-72.0264,-39.3406],[-72.0593,-39.3291],[-72.0688,-39.3183],[-72.0428,-39.2057],[-71.9706,-39.1969],[-71.9658,-39.1935],[-71.969,-39.1797],[-71.9436,-39.1775],[-71.9288,-39.1583],[-71.9102,-39.1607],[-71.9097,-39.1708],[-71.8923,-39.1856],[-71.8737,-39.1822],[-71.8618,-39.1514],[-71.8501,-39.1462],[-71.8208,-39.1502],[-71.8114,-39.1362],[-71.8174,-39.1268],[-71.7967,-39.1263],[-71.7408,-39.0994],[-71.7323,-39.1078],[-71.6818,-39.1164],[-71.6642,-39.1273],[-71.6157,-39.1069],[-71.6322,-39.0801],[-71.5962,-39.0779],[-71.5645,-39.0666],[-71.5342,-39.0674]]]}},{"type":"Feature","properties":{"comuna":"Purén","provincia":"Malleco"},"geometry":{"type":"Polygon","coordinates":[[[-73.0134,-37.8592],[-73.032,-37.886],[-73.0114,-37.8945],[-73.0247,-37.8947],[-73.0282,-37.8989],[-73.0221,-37.9029],[-73.033,-37.9057],[-73.0314,-37.9118],[-72.9963,-37.9332],[-72.9908,-37.9306],[-72.9922,-37.9366],[-72.9999,-37.9355],[-72.9911,-37.948],[-72.9942,-37.96],[-72.9676,-37.9849],[-72.9508,-37.9869],[-72.9554,-38.012],[-72.9337,-38.0185],[-72.9044,-38.0418],[-72.8956,-38.0544],[-72.9013,-38.0628],[-72.8905,-38.0736],[-72.9149,-38.0717],[-72.9285,-38.1125],[-72.9432,-38.1247],[-72.9808,-38.1278],[-72.974,-38.1153],[-72.9953,-38.1108],[-73.0374,-38.1308],[-73.0404,-38.1488],[-73.0546,-38.1562],[-73.0886,-38.1425],[-73.079,-38.1393],[-73.0732,-38.1282],[-73.0807,-38.0957],[-73.0996,-38.095],[-73.1249,-38.0765],[-73.1551,-38.0758],[-73.1678,-38.0574],[-73.1828,-38.0635],[-73.2063,-38.0531],[-73.2021,-38.0474],[-73.2063,-38.0407],[-73.1943,-38.0144],[-73.1812,-38.0038],[-73.1849,-37.9868],[-73.1286,-37.9729],[-73.1196,-37.9584],[-73.1223,-37.9468],[-73.1132,-37.9398],[-73.1105,-37.9079],[-73.1304,-37.8948],[-73.1254,-37.8779],[-73.1111,-37.8698],[-73.081,-37.8666],[-73.0701,-37.8538],[-73.0335,-37.8374],[-73.0125,-37.8496],[-73.0134,-37.8592]]]}},{"type":"Feature","properties":{"comuna":"Renaico","provincia":"Malleco"},"geometry":{"type":"Polygon","coordinates":[[[-72.6534,-37.6207],[-72.6532,-37.6302],[-72.6404,-37.6423],[-72.6508,-37.6648],[-72.631,-37.6688],[-72.6044,-37.6604],[-72.5944,-37.6715],[-72.5784,-37.6619],[-72.566,-37.6666],[-72.557,-37.6582],[-72.5375,-37.6656],[-72.5325,-37.654],[-72.5247,-37.6546],[-72.5259,-37.6477],[-72.493,-37.6465],[-72.486,-37.6757],[-72.4798,-37.6805],[-72.4835,-37.6927],[-72.4748,-37.6972],[-72.4787,-37.7058],[-72.4724,-37.7088],[-72.4848,-37.7216],[-72.4795,-37.748],[-72.4711,-37.7512],[-72.4597,-37.7753],[-72.4617,-37.7846],[-72.4857,-37.7759],[-72.5256,-37.7778],[-72.5135,-37.7964],[-72.4918,-37.8065],[-72.4965,-37.8266],[-72.5045,-37.8196],[-72.5051,-37.8309],[-72.513,-37.8248],[-72.5285,-37.8366],[-72.5444,-37.8133],[-72.5464,-37.7997],[-72.5639,-37.8072],[-72.5621,-37.802],[-72.5793,-37.7935],[-72.5773,-37.7892],[-72.5965,-37.7897],[-72.619,-37.7649],[-72.6261,-37.7342],[-72.6537,-37.7361],[-72.6937,-37.6965],[-72.71,-37.6926],[-72.7023,-37.6841],[-72.6971,-37.649],[-72.6995,-37.635],[-72.7095,-37.6244],[-72.6857,-37.6178],[-72.6657,-37.6295],[-72.6534,-37.6207]]]}},{"type":"Feature","properties":{"comuna":"Saavedra","provincia":"Cautín"},"geometry":{"type":"Polygon","coordinates":[[[-73.4278,-38.7631],[-73.4149,-38.749],[-73.3617,-38.7516],[-73.3529,-38.7369],[-73.358,-38.7056],[-73.3495,-38.6976],[-73.3129,-38.6947],[-73.27,-38.7025],[-73.2669,-38.7154],[-73.2428,-38.7256],[-73.2627,-38.7813],[-73.2492,-38.786],[-73.2461,-38.7991],[-73.2216,-38.8004],[-73.2253,-38.8108],[-73.1723,-38.8225],[-73.1774,-38.8535],[-73.1948,-38.859],[-73.1834,-38.8813],[-73.1829,-38.9348],[-73.2176,-38.9614],[-73.2493,-38.9489],[-73.2581,-38.938],[-73.2895,-38.9284],[-73.3089,-38.9482],[-73.3273,-38.9528],[-73.3247,-38.9664],[-73.3304,-38.9665],[-73.3772,-38.8743],[-73.4107,-38.7967],[-73.4079,-38.7872],[-73.4278,-38.7631]]]}},{"type":"Feature","properties":{"comuna":"Temuco","provincia":"Cautín"},"geometry":{"type":"Polygon","coordinates":[[[-72.6348,-38.7621],[-72.6509,-38.7646],[-72.6648,-38.7588],[-72.6685,-38.7678],[-72.6822,-38.7746],[-72.6901,-38.7659],[-72.7186,-38.7649],[-72.7263,-38.7759],[-72.7896,-38.7821],[-72.8248,-38.7782],[-72.8122,-38.7418],[-72.8186,-38.7387],[-72.8156,-38.7145],[-72.7997,-38.7085],[-72.7885,-38.6838],[-72.7714,-38.6727],[-72.7635,-38.6534],[-72.7567,-38.6539],[-72.7592,-38.6414],[-72.7688,-38.6333],[-72.7581,-38.597],[-72.7659,-38.5843],[-72.7533,-38.5821],[-72.743,-38.5652],[-72.7158,-38.5657],[-72.7088,-38.5494],[-72.629,-38.5557],[-72.6134,-38.5735],[-72.5893,-38.5826],[-72.5894,-38.612],[-72.5621,-38.6404],[-72.5478,-38.6428],[-72.5324,-38.6327],[-72.5214,-38.6496],[-72.5079,-38.6349],[-72.4694,-38.6451],[-72.4849,-38.6629],[-72.5195,-38.6788],[-72.5116,-38.6806],[-72.5117,-38.69],[-72.5394,-38.7103],[-72.5514,-38.7331],[-72.6059,-38.7585],[-72.6348,-38.7621]]]}},{"type":"Feature","properties":{"comuna":"Teodoro Schmidt","provincia":"Cautín"},"geometry":{"type":"Polygon","coordinates":[[[-73.0949,-38.9017],[-73.0664,-38.8917],[-73.0414,-38.8995],[-73.0302,-38.9129],[-73.0184,-38.897],[-73.0031,-38.8998],[-72.9939,-38.8947],[-72.9602,-38.902],[-72.9552,-38.8929],[-72.9345,-38.9024],[-72.8888,-38.889],[-72.8785,-38.8918],[-72.8808,-38.9029],[-72.8727,-38.9132],[-72.9148,-39.0221],[-72.9305,-39.025],[-72.974,-39.0116],[-72.9873,-39.0205],[-73.0444,-39.0214],[-73.0741,-39.0089],[-73.1035,-39.0262],[-73.1102,-39.0411],[-73.1228,-39.044],[-73.1208,-39.0581],[-73.1389,-39.0714],[-73.1421,-39.0829],[-73.1644,-39.0902],[-73.1853,-39.1165],[-73.1614,-39.1492],[-73.1801,-39.188],[-73.2055,-39.1903],[-73.2127,-39.2044],[-73.2332,-39.2078],[-73.2156,-39.2328],[-73.2252,-39.256],[-73.2828,-39.0841],[-73.3304,-38.9665],[-73.3247,-38.9664],[-73.3282,-38.9539],[-73.3089,-38.9482],[-73.2867,-38.9282],[-73.2176,-38.9614],[-73.1829,-38.9348],[-73.1863,-38.9093],[-73.1771,-38.8947],[-73.1684,-38.9013],[-73.1318,-38.8919],[-73.0949,-38.9017]]]}},{"type":"Feature","properties":{"comuna":"Toltén","provincia":"Cautín"},"geometry":{"type":"Polygon","coordinates":[[[-73.2252,-39.256],[-73.2156,-39.2328],[-73.2332,-39.2078],[-73.2127,-39.2044],[-73.2055,-39.1903],[-73.1801,-39.188],[-73.1614,-39.1492],[-73.1838,-39.1239],[-73.1806,-39.1077],[-73.1626,-39.0889],[-73.1421,-39.0829],[-73.1389,-39.0714],[-73.1208,-39.0581],[-73.1228,-39.044],[-73.1102,-39.0411],[-73.1035,-39.0262],[-73.0741,-39.0089],[-73.0444,-39.0214],[-72.9799,-39.0245],[-72.9761,-39.0324],[-72.9846,-39.0468],[-72.9778,-39.0584],[-72.9871,-39.075],[-72.9877,-39.1099],[-72.9689,-39.1397],[-72.9426,-39.1498],[-72.9257,-39.1447],[-72.9108,-39.1629],[-72.8899,-39.1744],[-72.8766,-39.1895],[-72.887,-39.2061],[-72.8642,-39.2166],[-72.8523,-39.2606],[-72.8587,-39.2636],[-72.8668,-39.2878],[-72.9093,-39.29],[-72.9452,-39.317],[-73.0073,-39.2915],[-73.0231,-39.2979],[-73.0311,-39.3114],[-73.0277,-39.3242],[-73.034,-39.3374],[-73.0464,-39.3374],[-73.0715,-39.3608],[-73.087,-39.3891],[-73.1003,-39.3947],[-73.1329,-39.3933],[-73.1453,-39.4098],[-73.1712,-39.4179],[-73.1805,-39.4109],[-73.2018,-39.4131],[-73.2283,-39.3921],[-73.2426,-39.3903],[-73.2332,-39.3833],[-73.2221,-39.3941],[-73.2039,-39.3701],[-73.2207,-39.3179],[-73.2322,-39.307],[-73.2221,-39.2947],[-73.2252,-39.256]]]}},{"type":"Feature","properties":{"comuna":"Traiguén","provincia":"Malleco"},"geometry":{"type":"Polygon","coordinates":[[[-72.4502,-38.1476],[-72.5076,-38.164],[-72.5042,-38.1871],[-72.5219,-38.1959],[-72.5332,-38.2466],[-72.5389,-38.2501],[-72.532,-38.2592],[-72.5402,-38.2601],[-72.5393,-38.2746],[-72.5088,-38.2621],[-72.5055,-38.3233],[-72.5143,-38.3229],[-72.5095,-38.3504],[-72.5229,-38.358],[-72.5487,-38.4185],[-72.5555,-38.4148],[-72.5707,-38.4257],[-72.5876,-38.4269],[-72.6359,-38.4213],[-72.6416,-38.4277],[-72.6716,-38.4156],[-72.6902,-38.4173],[-72.6824,-38.3902],[-72.6737,-38.3872],[-72.7009,-38.3657],[-72.7498,-38.3637],[-72.763,-38.3459],[-72.75,-38.3431],[-72.776,-38.3337],[-72.7795,-38.3205],[-72.7987,-38.3239],[-72.8089,-38.3373],[-72.8175,-38.3327],[-72.841,-38.3386],[-72.851,-38.3441],[-72.8495,-38.349],[-72.8727,-38.3495],[-72.8741,-38.345],[-72.8904,-38.3573],[-72.8985,-38.3558],[-72.8907,-38.3488],[-72.8971,-38.3324],[-72.8841,-38.3271],[-72.8942,-38.3252],[-72.8921,-38.317],[-72.8987,-38.3172],[-72.9004,-38.3095],[-72.8887,-38.3003],[-72.8925,-38.2874],[-72.8868,-38.2879],[-72.8975,-38.2821],[-72.8546,-38.2733],[-72.8063,-38.277],[-72.8146,-38.2438],[-72.8073,-38.2317],[-72.8104,-38.2058],[-72.8156,-38.2047],[-72.816,-38.1914],[-72.8236,-38.1878],[-72.7905,-38.1833],[-72.7906,-38.1264],[-72.7616,-38.1054],[-72.7534,-38.1079],[-72.7452,-38.0939],[-72.7354,-38.0933],[-72.7052,-38.1101],[-72.6762,-38.1116],[-72.667,-38.1235],[-72.6392,-38.1218],[-72.6309,-38.1164],[-72.6337,-38.1108],[-72.6144,-38.1036],[-72.6014,-38.1068],[-72.5838,-38.0962],[-72.5614,-38.0804],[-72.5617,-38.0724],[-72.5388,-38.07],[-72.522,-38.0858],[-72.4968,-38.0855],[-72.4632,-38.0981],[-72.4435,-38.1217],[-72.4534,-38.1393],[-72.4502,-38.1476]]]}},{"type":"Feature","properties":{"comuna":"Victoria","provincia":"Malleco"},"geometry":{"type":"Polygon","coordinates":[[[-71.9845,-38.1772],[-71.9483,-38.1749],[-71.9477,-38.1873],[-71.9281,-38.199],[-71.926,-38.2093],[-71.9694,-38.3248],[-71.985,-38.3423],[-71.9855,-38.353],[-71.9796,-38.3503],[-71.978,-38.3582],[-71.9986,-38.3666],[-72.0032,-38.3854],[-72.0405,-38.4132],[-72.0826,-38.4178],[-72.0881,-38.4253],[-72.12,-38.4196],[-72.163,-38.4233],[-72.1971,-38.4441],[-72.2409,-38.4553],[-72.2623,-38.4515],[-72.2592,-38.431],[-72.2538,-38.4321],[-72.2364,-38.3822],[-72.2719,-38.4034],[-72.3581,-38.3832],[-72.3499,-38.3607],[-72.3873,-38.352],[-72.4404,-38.3588],[-72.4568,-38.3699],[-72.4707,-38.3657],[-72.4949,-38.37],[-72.5233,-38.3592],[-72.5095,-38.3504],[-72.5149,-38.3257],[-72.5055,-38.3233],[-72.5052,-38.275],[-72.5088,-38.2621],[-72.5393,-38.2746],[-72.5402,-38.2601],[-72.532,-38.2592],[-72.5389,-38.2501],[-72.5332,-38.2466],[-72.5219,-38.1959],[-72.5042,-38.1871],[-72.5083,-38.1647],[-72.4851,-38.1552],[-72.4261,-38.1428],[-72.4103,-38.1522],[-72.3956,-38.1478],[-72.3685,-38.1578],[-72.3583,-38.1512],[-72.3175,-38.1468],[-72.3051,-38.1477],[-72.2879,-38.1603],[-72.2812,-38.1557],[-72.2634,-38.1634],[-72.2305,-38.1601],[-72.2229,-38.1687],[-72.1793,-38.1759],[-72.1587,-38.1703],[-72.1177,-38.1776],[-72.0839,-38.175],[-72.0141,-38.1883],[-72.0025,-38.1842],[-71.9898,-38.1881],[-71.9845,-38.1772]]]}},{"type":"Feature","properties":{"comuna":"Vilcún","provincia":"Cautín"},"geometry":{"type":"Polygon","coordinates":[[[-72.0546,-38.5997],[-72.0189,-38.6086],[-72.0062,-38.6206],[-71.9481,-38.6069],[-71.8948,-38.6054],[-71.8861,-38.6021],[-71.8745,-38.5782],[-71.84,-38.5692],[-71.8345,-38.5763],[-71.8389,-38.5944],[-71.8206,-38.5951],[-71.8131,-38.6158],[-71.7951,-38.6228],[-71.8,-38.6369],[-71.7683,-38.6379],[-71.6821,-38.6684],[-71.7306,-38.6969],[-71.7255,-38.7115],[-71.7302,-38.7239],[-71.7854,-38.7309],[-71.8077,-38.75],[-71.8292,-38.7804],[-71.8507,-38.7742],[-71.8874,-38.7847],[-71.8914,-38.79],[-71.8775,-38.8168],[-71.8811,-38.8239],[-71.8877,-38.8168],[-71.9496,-38.7964],[-72.0182,-38.8073],[-72.0704,-38.8294],[-72.0942,-38.821],[-72.1352,-38.8211],[-72.1791,-38.8038],[-72.186,-38.8086],[-72.2249,-38.8086],[-72.2645,-38.8326],[-72.2749,-38.8294],[-72.2924,-38.8349],[-72.2952,-38.8414],[-72.3148,-38.8414],[-72.3265,-38.8551],[-72.3351,-38.8498],[-72.3794,-38.8505],[-72.3869,-38.8432],[-72.3905,-38.8495],[-72.4057,-38.8493],[-72.4015,-38.8559],[-72.4121,-38.8556],[-72.4343,-38.8423],[-72.43,-38.8196],[-72.4514,-38.8203],[-72.4223,-38.8022],[-72.4235,-38.7963],[-72.4131,-38.7895],[-72.4198,-38.7863],[-72.4125,-38.777],[-72.4174,-38.7742],[-72.4142,-38.7665],[-72.4025,-38.7614],[-72.4038,-38.7551],[-72.3858,-38.7514],[-72.3834,-38.746],[-72.393,-38.7471],[-72.3795,-38.738],[-72.4369,-38.7207],[-72.4717,-38.7269],[-72.4671,-38.7142],[-72.4488,-38.7009],[-72.5195,-38.6788],[-72.4849,-38.6629],[-72.4694,-38.6451],[-72.4541,-38.6485],[-72.4608,-38.6653],[-72.4406,-38.6702],[-72.4325,-38.6588],[-72.4083,-38.6525],[-72.3965,-38.6373],[-72.3693,-38.6326],[-72.3661,-38.6255],[-72.3215,-38.6103],[-72.3067,-38.5818],[-72.31,-38.5748],[-72.3002,-38.575],[-72.2972,-38.5663],[-72.2589,-38.5667],[-72.2538,-38.5578],[-72.2218,-38.5577],[-72.1602,-38.5757],[-72.157,-38.5672],[-72.1352,-38.5722],[-72.1489,-38.5897],[-72.156,-38.588],[-72.1557,-38.5962],[-72.1422,-38.5998],[-72.1296,-38.6016],[-72.1024,-38.5873],[-72.0855,-38.6004],[-72.0546,-38.5997]]]}},{"type":"Feature","properties":{"comuna":"Villarrica","provincia":"Cautín"},"geometry":{"type":"Polygon","coordinates":[[[-72.2996,-39.497],[-72.3423,-39.4778],[-72.3426,-39.4694],[-72.3542,-39.4614],[-72.3446,-39.4506],[-72.3402,-39.4285],[-72.3409,-39.4212],[-72.347,-39.4213],[-72.3396,-39.3991],[-72.3663,-39.3931],[-72.3823,-39.3723],[-72.4096,-39.3722],[-72.4368,-39.3627],[-72.3956,-39.3597],[-72.3481,-39.3361],[-72.3533,-39.3297],[-72.349,-39.3037],[-72.3834,-39.2837],[-72.3885,-39.2867],[-72.3935,-39.2691],[-72.3606,-39.2644],[-72.3469,-39.2292],[-72.3202,-39.2379],[-72.3111,-39.2284],[-72.32,-39.222],[-72.3183,-39.212],[-72.3295,-39.199],[-72.3268,-39.1898],[-72.3335,-39.1892],[-72.3293,-39.1698],[-72.3463,-39.1497],[-72.3388,-39.1476],[-72.3408,-39.1422],[-72.3563,-39.1215],[-72.3694,-39.1196],[-72.3581,-39.0882],[-72.3321,-39.0941],[-72.3188,-39.0597],[-72.2755,-39.0919],[-72.2671,-39.1113],[-72.2148,-39.0965],[-72.1828,-39.1055],[-72.1646,-39.1002],[-72.1391,-39.1025],[-72.0822,-39.127],[-72.0632,-39.1251],[-72.0446,-39.1416],[-71.9632,-39.1202],[-71.9104,-39.1545],[-71.9139,-39.1618],[-71.9288,-39.1583],[-71.9436,-39.1775],[-71.969,-39.1797],[-71.9658,-39.1935],[-71.9706,-39.1969],[-72.0459,-39.2079],[-72.0682,-39.3034],[-72.0653,-39.3245],[-72.0264,-39.3406],[-72.0119,-39.3526],[-71.9994,-39.3789],[-71.9854,-39.3877],[-71.9864,-39.413],[-71.9393,-39.4202],[-71.9583,-39.4374],[-71.9738,-39.4451],[-72.0102,-39.4466],[-72.0716,-39.4791],[-72.0893,-39.4966],[-72.1469,-39.5209],[-72.1804,-39.5202],[-72.2152,-39.5311],[-72.269,-39.513],[-72.2551,-39.5004],[-72.2578,-39.491],[-72.2427,-39.4852],[-72.2365,-39.4711],[-72.2164,-39.4689],[-72.2204,-39.4671],[-72.2643,-39.4709],[-72.2788,-39.49],[-72.2996,-39.497]]]}}]}